AEHF-4 (USA 288)        
1 43651U 18079A   26170.80840579 -.00000281  00000+0  00000+0 0  9991
2 43651   1.4330   4.2334 0060357 355.9969 131.3101  1.00271829 28320
BEIDOU-3 G1             
1 43683U 18085A   26170.78205899 -.00000115  00000+0  00000+0 0  9996
2 43683   2.8758  97.2945 0008086 350.2012 261.9907  1.00270301 28083
GSAT-29                 
1 43698U 18089A   26170.76132067  .00000078  00000+0  00000+0 0  9997
2 43698   0.0996 264.3399 0003893 152.6861 180.1309  1.00276823 27813
ES'HAIL 2               
1 43700U 18090A   26170.75551398  .00000138  00000+0  00000+0 0  9991
2 43700   0.0135  53.5670 0001779  70.9931  81.1783  1.00272144 27709
GEO-KOMPSAT-2A          
1 43823U 18100A   26170.77581896 -.00000349  00000+0  00000+0 0  9992
2 43823   0.0474 153.1154 0002156 293.2154 229.2186  1.00272693 27657
GSAT-11                 
1 43824U 18100B   26170.33732833 -.00000083  00000+0  00000+0 0  9999
2 43824   0.0298 238.0805 0007769 210.2444  14.6726  1.00271396 27503
GSAT-7A                 
1 43864U 18105A   26170.80731206  .00000021  00000+0  00000+0 0  9994
2 43864   0.0278  94.8844 0002029 331.3087 195.2183  1.00271843 27474
COSMOS 2533             
1 43867U 18107A   26170.90665381 -.00000044  00000+0  00000+0 0  9996
2 43867   0.0429  98.8443 0000683 343.4162 222.2435  1.00270734 27475
TJS-3                   
1 43874U 18110A   26170.73030200 -.00000223  00000+0  00000+0 0  9994
2 43874   2.5524  80.4638 0002241  80.1954 158.4416  1.00270135 27446
ZHONGXING-2D            
1 43920U 19001A   26170.77616562 -.00000343  00000+0  00000+0 0  9994
2 43920   0.0366 219.3254 0001339 116.4424 341.6583  1.00270120 54102
HELLAS-SAT 4 & SGS-1    
1 44034U 19007A   26169.61749581  .00000146  00000+0  00000+0 0  9996
2 44034   0.0763 127.4708 0004778  14.7150  25.9943  1.00270754 27384
GSAT-31                 
1 44035U 19007B   26170.75984734  .00000119  00000+0  00000+0 0  9995
2 44035   0.0583 256.9348 0001521 110.0478 222.4143  1.00274360 26998
NUSANTARA SATU          
1 44048U 19009A   26170.77928565 -.00000241  00000+0  00000+0 0  9990
2 44048   0.0405 137.1264 0004318 342.3299 215.0902  1.00269010 26795
ZHONGXING-6C            
1 44067U 19012A   26170.77616562 -.00000341  00000+0  00000+0 0  9997
2 44067   0.0808  73.2655 0014034 336.6816 267.8720  1.00272515 26768
WGS 10 (USA 291)        
1 44071U 19014A   26170.74917721  .00000041  00000+0  00000+0 0  9998
2 44071   0.0186  20.5861 0000443 318.3668 259.0344  1.00272068 26642
TIANLIAN 2-01           
1 44076U 19017A   26170.88330882 -.00000112  00000+0  00000+0 0  9998
2 44076   0.5480  83.1235 0000856  34.1248 185.8504  1.00271167 26670
ARABSAT-6A              
1 44186U 19021A   26170.75638066  .00000148  00000+0  00000+0 0  9994
2 44186   0.0512  14.7215 0001480 338.2272 217.7964  1.00275278 26188
BEIDOU-3 IGSO-1         
1 44204U 19023A   26170.63121933 -.00000227  00000+0  00000+0 0  9993
2 44204  58.6985  37.6233 0025577 225.7008 349.9014  1.00290861  7230
BEIDOU-2 G8             
1 44231U 19027A   26170.77902565 -.00000253  00000+0  00000+0 0  9999
2 44231   1.6656  74.5062 0010137 282.0800 336.3928  1.00269994 26109
YAMAL 601               
1 44307U 19031A   26170.76010734  .00000114  00000+0  00000+0 0  9990
2 44307   0.0173  30.2872 0002466  60.2237 140.1086  1.00272372 25956
AT&T T-16               
1 44333U 19034A   26170.65908536 -.00000121  00000+0  00000+0 0  9995
2 44333   0.0205  64.4367 0000790 246.1589  93.6973  1.00271427 25656
EUTELSAT 7C             
1 44334U 19034B   26170.75175587  .00000042  00000+0  00000+0 0  9990
2 44334   0.0725 176.7677 0003136 255.3811 113.4606  1.00270826  6860
BEIDOU-3 IGSO-2         
1 44337U 19035A   26169.88675894 -.00000097  00000+0  00000+0 0  9993
2 44337  55.2463 158.8478 0039664 216.5160 330.6306  1.00265889 25689
COSMOS 2539             
1 44457U 19048A   26170.11110520  .00000075  00000+0  00000+0 0  9993
2 44457   0.0391  90.7372 0000747 357.0710 231.5178  1.00273944 25248
EDRS-C                  
1 44475U 19049A   26169.92307883 -.00000270  00000+0  00000+0 0  9999
2 44475   0.0121  43.2391 0000548  20.8725 317.8232  1.00265043 25221
INTELSAT 39 (IS-39)     
1 44476U 19049B   26170.85171477  .00000028  00000+0  00000+0 0  9992
2 44476   0.0075   4.6950 0000933 326.1975 305.7397  1.00270992 25158
AMOS-17                 
1 44479U 19050A   26170.84211355  .00000104  00000+0  00000+0 0  9991
2 44479   0.0229 316.8745 0001906 169.0916 102.2654  1.00274175 25212
AEHF-5 (USA 292)        
1 44481U 19051A   26170.76871226 -.00000264  00000+0  00000+0 0  9993
2 44481   1.4514 336.4399 0066233 359.9302 301.4305  1.00273117 25281
EUTELSAT 5 WEST B       
1 44624U 19067A   26170.85322421 -.00000048  00000+0  00000+0 0  9997
2 44624   0.0624 351.1019 0003083  97.4901 121.6554  1.00270055 24468
MEV-1                   
1 44625U 19067B   26167.92963140 -.00000149  00000+0  00000+0 0  9993
2 44625   0.8740 268.9828 0002794 179.8034 307.2103  1.00269616 61744
TJS-4                   
1 44637U 19070A   26170.62435421 -.00000176  00000+0  00000+0 0  9997
2 44637   0.0228  73.5150 0004428 325.0818 177.5029  1.00273281 24566
TIBA-1                  
1 44800U 19080A   26170.75742066  .00000150  00000+0  00000+0 0  9991
2 44800   0.0561  19.4630 0001956  79.9180 116.7433  1.00272334 24089
