OBJECT_NAME,OBJECT_ID,EPOCH,MEAN_MOTION,ECCENTRICITY,INCLINATION,RA_OF_ASC_NODE,ARG_OF_PERICENTER,MEAN_ANOMALY,EPHEMERIS_TYPE,CLASSIFICATION_TYPE,NORAD_CAT_ID,ELEMENT_SET_NO,REV_AT_EPOCH,BSTAR,MEAN_MOTION_DOT,MEAN_MOTION_DDOT
AEHF-4 (USA 288),2018-079A,2026-06-19T19:24:06.260256,1.00271829,.0060357,1.4330,4.2334,355.9969,131.3101,0,U,43651,999,2832,0,-.281E-5,0
BEIDOU-3 G1,2018-085A,2026-06-19T18:46:09.896736,1.00270301,.0008086,2.8758,97.2945,350.2012,261.9907,0,U,43683,999,2808,0,-.115E-5,0
GSAT-29,2018-089A,2026-06-19T18:16:18.105888,1.00276823,.0003893,0.0996,264.3399,152.6861,180.1309,0,U,43698,999,2781,0,.78E-6,0
ES'HAIL 2,2018-090A,2026-06-19T18:07:56.407872,1.00272144,.0001779,0.0135,53.5670,70.9931,81.1783,0,U,43700,999,2770,0,.138E-5,0
GEO-KOMPSAT-2A,2018-100A,2026-06-19T18:37:10.758144,1.00272693,.0002156,0.0474,153.1154,293.2154,229.2186,0,U,43823,999,2765,0,-.349E-5,0
GSAT-11,2018-100B,2026-06-19T08:05:45.167712,1.00271396,.00077695,0.0298,238.0805,210.2444,14.6726,0,U,43824,999,2750,0,-.83E-6,0
GSAT-7A,2018-105A,2026-06-19T19:22:31.761984,1.00271843,.0002029,0.0278,94.8844,331.3087,195.2183,0,U,43864,999,2747,0,.21E-6,0
COSMOS 2533,2018-107A,2026-06-19T21:45:34.889184,1.00270734,.0000683,0.0429,98.8443,343.4162,222.2435,0,U,43867,999,2747,0,-.44E-6,0
TJS-3,2018-110A,2026-06-19T17:31:38.092800,1.00270135,.0002241,2.5524,80.4638,80.1954,158.4416,0,U,43874,999,2744,0,-.223E-5,0
ZHONGXING-2D,2019-001A,2026-06-19T18:37:40.709568,1.00270120,.0001339,0.0366,219.3254,116.4424,341.6583,0,U,43920,999,5410,0,-.343E-5,0
HELLAS-SAT 4 & SGS-1,2019-007A,2026-06-18T14:49:11.637984,1.00270754,.00047788,0.0763,127.4708,14.7150,25.9943,0,U,44034,999,2738,0,.146E-5,0
GSAT-31,2019-007B,2026-06-19T18:14:10.810176,1.00274360,.0001521,0.0583,256.9348,110.0478,222.4143,0,U,44035,999,2699,0,.119E-5,0
NUSANTARA SATU,2019-009A,2026-06-19T18:42:10.280160,1.00269010,.0004318,0.0405,137.1264,342.3299,215.0902,0,U,44048,999,2679,0,-.241E-5,0
ZHONGXING-6C,2019-012A,2026-06-19T18:37:40.709568,1.00272515,.0014034,0.0808,73.2655,336.6816,267.8720,0,U,44067,999,2676,0,-.341E-5,0
WGS 10 (USA 291),2019-014A,2026-06-19T17:58:48.910944,1.00272068,.0000443,0.0186,20.5861,318.3668,259.0344,0,U,44071,999,2664,0,.41E-6,0
TIANLIAN 2-01,2019-017A,2026-06-19T21:11:57.882048,1.00271167,.0000856,0.5480,83.1235,34.1248,185.8504,0,U,44076,999,2667,0,-.112E-5,0
ARABSAT-6A,2019-021A,2026-06-19T18:09:11.289024,1.00275278,.000148,0.0512,14.7215,338.2272,217.7964,0,U,44186,999,2618,0,.148E-5,0
BEIDOU-3 IGSO-1,2019-023A,2026-06-19T15:08:57.350112,1.00290861,.00255776,58.6985,37.6233,225.7008,349.9014,0,U,44204,999,723,0,-.227E-5,0
BEIDOU-2 G8,2019-027A,2026-06-19T18:41:47.816160,1.00269994,.0010137,1.6656,74.5062,282.0800,336.3928,0,U,44231,999,2610,0,-.253E-5,0
YAMAL 601,2019-031A,2026-06-19T18:14:33.274176,1.00272372,.0002466,0.0173,30.2872,60.2237,140.1086,0,U,44307,999,2595,0,.114E-5,0
AT&T T-16,2019-034A,2026-06-19T15:49:04.975104,1.00271427,.000079,0.0205,64.4367,246.1589,93.6973,0,U,44333,999,2565,0,-.121E-5,0
EUTELSAT 7C,2019-034B,2026-06-19T18:02:31.707168,1.00270826,.0003136,0.0725,176.7677,255.3811,113.4606,0,U,44334,999,686,0,.42E-6,0
BEIDOU-3 IGSO-2,2019-035A,2026-06-18T21:16:55.972416,1.00265889,.00396642,55.2463,158.8478,216.5160,330.6306,0,U,44337,999,2568,0,-.97E-6,0
COSMOS 2539,2019-048A,2026-06-19T02:39:59.489280,1.00273944,.00007477,0.0391,90.7372,357.0710,231.5178,0,U,44457,999,2524,0,.75E-6,0
EDRS-C,2019-049A,2026-06-18T22:09:14.010912,1.00265043,.0000548,0.0121,43.2391,20.8725,317.8232,0,U,44475,999,2522,0,-.27E-5,0
INTELSAT 39 (IS-39),2019-049B,2026-06-19T20:26:28.156128,1.00270992,.0000933,0.0075,4.6950,326.1975,305.7397,0,U,44476,999,2515,0,.28E-6,0
AMOS-17,2019-050A,2026-06-19T20:12:38.610720,1.00274175,.0001906,0.0229,316.8745,169.0916,102.2654,0,U,44479,999,2521,0,.104E-5,0
AEHF-5 (USA 292),2019-051A,2026-06-19T18:26:56.739264,1.00273117,.0066233,1.4514,336.4399,359.9302,301.4305,0,U,44481,999,2528,0,-.264E-5,0
EUTELSAT 5 WEST B,2019-067A,2026-06-19T20:28:38.571744,1.00270055,.0003083,0.0624,351.1019,97.4901,121.6554,0,U,44624,999,2446,0,-.48E-6,0
MEV-1,2019-067B,2026-06-16T22:18:40.152960,1.00269616,.00027946,0.8740,268.9828,179.8034,307.2103,0,U,44625,999,6174,0,-.149E-5,0
TJS-4,2019-070A,2026-06-19T14:59:04.203744,1.00273281,.00044286,0.0228,73.5150,325.0818,177.5029,0,U,44637,999,2456,0,-.176E-5,0
TIBA-1,2019-080A,2026-06-19T18:10:41.145024,1.00272334,.0001956,0.0561,19.4630,79.9180,116.7433,0,U,44800,999,2408,0,.15E-5,0
